PCSAT (NO-44)           
1 26931U 01043C   26115.84473576  .00000123  00000+0  76957-4 0  9991
2 26931  67.0528  19.6518 0006513 263.9909  96.0451 14.31935056282952
PROBA-1                 
1 26958U 01049B   26115.82814278  .00002368  00000+0  15650-3 0  9997
2 26958  97.9622 122.5367 0054052 300.8739  58.7178 15.07292716335736
SPOT 5                  
1 27421U 02021A   26115.69107663  .00000425  00000+0  98560-4 0  9996
2 27421  97.9897 156.8695 0131021  79.9266 281.6685 14.54707047255214
FENGYUN 1D              
1 27431U 02024B   26115.71607860  .00000069  00000+0  64000-4 0  9993
2 27431  98.9567 166.2740 0015906  34.2767 325.9427 14.10217245232083
SAUDISAT 1C (SO-50)     
1 27607U 02058C   26115.82574772  .00001145  00000+0  15231-3 0  9999
2 27607  64.5516 290.9753 0075587 271.9918  87.2533 14.82928015256691
CORIOLIS                
1 27640U 03001A   26115.77098691  .00000111  00000+0  72886-4 0  9992
2 27640  98.7145 123.4535 0014112   8.9832 351.1594 14.19929625206786
CUTE-1 (CO-55)          
1 27844U 03031E   26115.77207238  .00000259  00000+0  13095-3 0  9999
2 27844  98.6757 124.9877 0009142 345.2337  14.8573 14.24301725184213
CUBESAT XI-IV (CO-57)   
1 27848U 03031J   26115.73432730  .00000222  00000+0  11661-3 0  9993
2 27848  98.6790 124.7055 0009441   4.0934 356.0321 14.23591475183915
MOZHAETS 4 (RS22)       
1 27939U 03042A   26115.86219936  .00000865  00000+0  14175-3 0  9997
2 27939  98.3474 298.7465 0012550  76.0943  31.0636 14.73369836207840
IRS-P6 (RESOURCESAT-1)  
1 28051U 03046A   26115.84071924 -.00000011  00000+0  99996-5 0  9998
2 28051  98.1960 154.9072 0064979 138.4259 309.1709 14.36141298173016
SAUDISAT 2              
1 28371U 04025F   26115.75589839  .00000251  00000+0  67100-4 0  9996
2 28371  98.5511 114.3855 0025957  97.4981 262.9167 14.56650112158115
COSMOS 2407             
1 28380U 04028A   26115.74632686  .00000077  00000+0  63060-4 0  9994
2 28380  82.9567 113.6757 0040217  40.7266 133.4789 13.76329927 92666
COSMOS 2414             
1 28521U 05002A   26115.83822359  .00000094  00000+0  65107-4 0  9995
2 28521  82.9474  83.2412 0041386 117.6076 242.9299 13.87920540 76553
INMARSAT 4-F1           
1 28628U 05009A   26112.64979137  .00000024  00000+0  00000+0 0  9992
2 28628   5.0953  42.6844 0002718 340.2932 239.7280  1.00272777 77119
HAMSAT (VO-52)          
1 28650U 05017B   26115.62161775  .00004109  00000+0  26156-3 0  9990
2 28650  97.9945 136.4743 0018756 210.7241 149.2890 15.09248728138830
NOAA 18                 
1 28654U 05018A   26115.81952205  .00000047  00000+0  48291-4 0  9994
2 28654  98.8112 196.2544 0013258 302.0086  57.9798 14.13719853 78917
SJ-7                    
1 28737U 05024A   26115.79353071  .00007279  00000+0  33304-3 0  9998
2 28737  97.7338 144.5098 0015271 208.4189 151.6214 15.20740603140064
