[{"OBJECT_NAME":"PCSAT (NO-44)","OBJECT_ID":"2001-043C","EPOCH":"2026-04-25T20:16:25.169664","MEAN_MOTION":14.31935056,"ECCENTRICITY":0.0006513,"INCLINATION":67.0528,"RA_OF_ASC_NODE":19.6518,"ARG_OF_PERICENTER":263.9909,"MEAN_ANOMALY":96.0451,"EPHEMERIS_TYPE":0,"CLASSIFICATION_TYPE":"U","NORAD_CAT_ID":26931,"ELEMENT_SET_NO":999,"REV_AT_EPOCH":28295,"BSTAR":7.6957e-5,"MEAN_MOTION_DOT":1.23e-6,"MEAN_MOTION_DDOT":0},{"OBJECT_NAME":"PROBA-1","OBJECT_ID":"2001-049B","EPOCH":"2026-04-25T19:52:31.536192","MEAN_MOTION":15.07292716,"ECCENTRICITY":0.0054052,"INCLINATION":97.9622,"RA_OF_ASC_NODE":122.5367,"ARG_OF_PERICENTER":300.8739,"MEAN_ANOMALY":58.7178,"EPHEMERIS_TYPE":0,"CLASSIFICATION_TYPE":"U","NORAD_CAT_ID":26958,"ELEMENT_SET_NO":999,"REV_AT_EPOCH":33573,"BSTAR":0.0001565,"MEAN_MOTION_DOT":2.368e-5,"MEAN_MOTION_DDOT":0},{"OBJECT_NAME":"SPOT 5","OBJECT_ID":"2002-021A","EPOCH":"2026-04-25T16:35:09.020832","MEAN_MOTION":14.54707047,"ECCENTRICITY":0.0131021,"INCLINATION":97.9897,"RA_OF_ASC_NODE":156.8695,"ARG_OF_PERICENTER":79.9266,"MEAN_ANOMALY":281.6685,"EPHEMERIS_TYPE":0,"CLASSIFICATION_TYPE":"U","NORAD_CAT_ID":27421,"ELEMENT_SET_NO":999,"REV_AT_EPOCH":25521,"BSTAR":9.856e-5,"MEAN_MOTION_DOT":4.25e-6,"MEAN_MOTION_DDOT":0},{"OBJECT_NAME":"FENGYUN 1D","OBJECT_ID":"2002-024B","EPOCH":"2026-04-25T17:11:09.191040","MEAN_MOTION":14.10217245,"ECCENTRICITY":0.0015906,"INCLINATION":98.9567,"RA_OF_ASC_NODE":166.274,"ARG_OF_PERICENTER":34.2767,"MEAN_ANOMALY":325.9427,"EPHEMERIS_TYPE":0,"CLASSIFICATION_TYPE":"U","NORAD_CAT_ID":27431,"ELEMENT_SET_NO":999,"REV_AT_EPOCH":23208,"BSTAR":6.4e-5,"MEAN_MOTION_DOT":6.9e-7,"MEAN_MOTION_DDOT":0},{"OBJECT_NAME":"SAUDISAT 1C (SO-50)","OBJECT_ID":"2002-058C","EPOCH":"2026-04-25T19:49:04.603008","MEAN_MOTION":14.82928015,"ECCENTRICITY":0.0075587,"INCLINATION":64.5516,"RA_OF_ASC_NODE":290.9753,"ARG_OF_PERICENTER":271.9918,"MEAN_ANOMALY":87.2533,"EPHEMERIS_TYPE":0,"CLASSIFICATION_TYPE":"U","NORAD_CAT_ID":27607,"ELEMENT_SET_NO":999,"REV_AT_EPOCH":25669,"BSTAR":0.00015231,"MEAN_MOTION_DOT":1.145e-5,"MEAN_MOTION_DDOT":0},{"OBJECT_NAME":"CORIOLIS","OBJECT_ID":"2003-001A","EPOCH":"2026-04-25T18:30:13.269024","MEAN_MOTION":14.19929625,"ECCENTRICITY":0.0014112,"INCLINATION":98.7145,"RA_OF_ASC_NODE":123.4535,"ARG_OF_PERICENTER":8.9832,"MEAN_ANOMALY":351.1594,"EPHEMERIS_TYPE":0,"CLASSIFICATION_TYPE":"U","NORAD_CAT_ID":27640,"ELEMENT_SET_NO":999,"REV_AT_EPOCH":20678,"BSTAR":7.2886e-5,"MEAN_MOTION_DOT":1.11e-6,"MEAN_MOTION_DDOT":0},{"OBJECT_NAME":"CUTE-1 (CO-55)","OBJECT_ID":"2003-031E","EPOCH":"2026-04-25T18:31:47.053632","MEAN_MOTION":14.24301725,"ECCENTRICITY":0.0009142,"INCLINATION":98.6757,"RA_OF_ASC_NODE":124.9877,"ARG_OF_PERICENTER":345.2337,"MEAN_ANOMALY":14.8573,"EPHEMERIS_TYPE":0,"CLASSIFICATION_TYPE":"U","NORAD_CAT_ID":27844,"ELEMENT_SET_NO":999,"REV_AT_EPOCH":18421,"BSTAR":0.00013095,"MEAN_MOTION_DOT":2.59e-6,"MEAN_MOTION_DDOT":0},{"OBJECT_NAME":"CUBESAT XI-IV (CO-57)","OBJECT_ID":"2003-031J","EPOCH":"2026-04-25T17:37:25.878720","MEAN_MOTION":14.23591475,"ECCENTRICITY":0.0009441,"INCLINATION":98.679,"RA_OF_ASC_NODE":124.7055,"ARG_OF_PERICENTER":4.0934,"MEAN_ANOMALY":356.0321,"EPHEMERIS_TYPE":0,"CLASSIFICATION_TYPE":"U","NORAD_CAT_ID":27848,"ELEMENT_SET_NO":999,"REV_AT_EPOCH":18391,"BSTAR":0.00011661,"MEAN_MOTION_DOT":2.22e-6,"MEAN_MOTION_DDOT":0},{"OBJECT_NAME":"MOZHAETS 4 (RS22)","OBJECT_ID":"2003-042A","EPOCH":"2026-04-25T20:41:34.024704","MEAN_MOTION":14.73369836,"ECCENTRICITY":0.001255,"INCLINATION":98.3474,"RA_OF_ASC_NODE":298.7465,"ARG_OF_PERICENTER":76.0943,"MEAN_ANOMALY":31.0636,"EPHEMERIS_TYPE":0,"CLASSIFICATION_TYPE":"U","NORAD_CAT_ID":27939,"ELEMENT_SET_NO":999,"REV_AT_EPOCH":20784,"BSTAR":0.00014175,"MEAN_MOTION_DOT":8.65e-6,"MEAN_MOTION_DDOT":0},{"OBJECT_NAME":"IRS-P6 (RESOURCESAT-1)","OBJECT_ID":"2003-046A","EPOCH":"2026-04-25T20:10:38.142336","MEAN_MOTION":14.36141298,"ECCENTRICITY":0.0064979,"INCLINATION":98.196,"RA_OF_ASC_NODE":154.9072,"ARG_OF_PERICENTER":138.4259,"MEAN_ANOMALY":309.1709,"EPHEMERIS_TYPE":0,"CLASSIFICATION_TYPE":"U","NORAD_CAT_ID":28051,"ELEMENT_SET_NO":999,"REV_AT_EPOCH":17301,"BSTAR":9.9996e-6,"MEAN_MOTION_DOT":-1.1e-7,"MEAN_MOTION_DDOT":0},{"OBJECT_NAME":"SAUDISAT 2","OBJECT_ID":"2004-025F","EPOCH":"2026-04-25T18:08:29.620896","MEAN_MOTION":14.56650112,"ECCENTRICITY":0.0025957,"INCLINATION":98.5511,"RA_OF_ASC_NODE":114.3855,"ARG_OF_PERICENTER":97.4981,"MEAN_ANOMALY":262.9167,"EPHEMERIS_TYPE":0,"CLASSIFICATION_TYPE":"U","NORAD_CAT_ID":28371,"ELEMENT_SET_NO":999,"REV_AT_EPOCH":15811,"BSTAR":6.71e-5,"MEAN_MOTION_DOT":2.51e-6,"MEAN_MOTION_DDOT":0},{"OBJECT_NAME":"COSMOS 2407","OBJECT_ID":"2004-028A","EPOCH":"2026-04-25T17:54:42.640704","MEAN_MOTION":13.76329927,"ECCENTRICITY":0.0040217,"INCLINATION":82.9567,"RA_OF_ASC_NODE":113.6757,"ARG_OF_PERICENTER":40.7266,"MEAN_ANOMALY":133.4789,"EPHEMERIS_TYPE":0,"CLASSIFICATION_TYPE":"U","NORAD_CAT_ID":28380,"ELEMENT_SET_NO":999,"REV_AT_EPOCH":9266,"BSTAR":6.306e-5,"MEAN_MOTION_DOT":7.7e-7,"MEAN_MOTION_DDOT":0},{"OBJECT_NAME":"COSMOS 2414","OBJECT_ID":"2005-002A","EPOCH":"2026-04-25T20:07:02.518176","MEAN_MOTION":13.8792054,"ECCENTRICITY":0.0041386,"INCLINATION":82.9474,"RA_OF_ASC_NODE":83.2412,"ARG_OF_PERICENTER":117.6076,"MEAN_ANOMALY":242.9299,"EPHEMERIS_TYPE":0,"CLASSIFICATION_TYPE":"U","NORAD_CAT_ID":28521,"ELEMENT_SET_NO":999,"REV_AT_EPOCH":7655,"BSTAR":6.5107e-5,"MEAN_MOTION_DOT":9.4e-7,"MEAN_MOTION_DDOT":0},{"OBJECT_NAME":"INMARSAT 4-F1","OBJECT_ID":"2005-009A","EPOCH":"2026-04-22T15:35:41.974368","MEAN_MOTION":1.00272777,"ECCENTRICITY":0.00027183,"INCLINATION":5.0953,"RA_OF_ASC_NODE":42.6844,"ARG_OF_PERICENTER":340.2932,"MEAN_ANOMALY":239.728,"EPHEMERIS_TYPE":0,"CLASSIFICATION_TYPE":"U","NORAD_CAT_ID":28628,"ELEMENT_SET_NO":999,"REV_AT_EPOCH":7711,"BSTAR":0,"MEAN_MOTION_DOT":2.4e-7,"MEAN_MOTION_DDOT":0},{"OBJECT_NAME":"HAMSAT (VO-52)","OBJECT_ID":"2005-017B","EPOCH":"2026-04-25T14:55:07.773600","MEAN_MOTION":15.09248728,"ECCENTRICITY":0.0018756,"INCLINATION":97.9945,"RA_OF_ASC_NODE":136.4743,"ARG_OF_PERICENTER":210.7241,"MEAN_ANOMALY":149.289,"EPHEMERIS_TYPE":0,"CLASSIFICATION_TYPE":"U","NORAD_CAT_ID":28650,"ELEMENT_SET_NO":999,"REV_AT_EPOCH":13883,"BSTAR":0.00026156,"MEAN_MOTION_DOT":4.109e-5,"MEAN_MOTION_DDOT":0},{"OBJECT_NAME":"NOAA 18","OBJECT_ID":"2005-018A","EPOCH":"2026-04-25T19:40:06.705120","MEAN_MOTION":14.13719853,"ECCENTRICITY":0.0013258,"INCLINATION":98.8112,"RA_OF_ASC_NODE":196.2544,"ARG_OF_PERICENTER":302.0086,"MEAN_ANOMALY":57.9798,"EPHEMERIS_TYPE":0,"CLASSIFICATION_TYPE":"U","NORAD_CAT_ID":28654,"ELEMENT_SET_NO":999,"REV_AT_EPOCH":7891,"BSTAR":4.8291e-5,"MEAN_MOTION_DOT":4.7e-7,"MEAN_MOTION_DDOT":0},{"OBJECT_NAME":"SJ-7","OBJECT_ID":"2005-024A","EPOCH":"2026-04-25T19:02:41.053344","MEAN_MOTION":15.20740603,"ECCENTRICITY":0.0015271,"INCLINATION":97.7338,"RA_OF_ASC_NODE":144.5098,"ARG_OF_PERICENTER":208.4189,"MEAN_ANOMALY":151.6214,"EPHEMERIS_TYPE":0,"CLASSIFICATION_TYPE":"U","NORAD_CAT_ID":28737,"ELEMENT_SET_NO":999,"REV_AT_EPOCH":14006,"BSTAR":0.00033304,"MEAN_MOTION_DOT":7.279e-5,"MEAN_MOTION_DDOT":0}]
